OBJECT_NAME,OBJECT_ID,EPOCH,MEAN_MOTION,ECCENTRICITY,INCLINATION,RA_OF_ASC_NODE,ARG_OF_PERICENTER,MEAN_ANOMALY,EPHEMERIS_TYPE,CLASSIFICATION_TYPE,NORAD_CAT_ID,ELEMENT_SET_NO,REV_AT_EPOCH,BSTAR,MEAN_MOTION_DOT,MEAN_MOTION_DDOT
SKYSAT-C4,2016-058B,2026-06-25T14:27:44.095680,15.48836768,.0001989,96.9174,198.0225,140.2489,219.8909,0,U,41771,999,54677,.39235E-3,.2105E-3,0
SKYSAT-C5,2016-058C,2026-06-25T15:30:46.370592,15.34581947,.0001109,97.0470,216.9092,229.1099,131.0049,0,U,41772,999,54504,.2718E-3,.9034E-4,0
SKYSAT-C2,2016-058D,2026-06-25T13:33:28.116000,15.42248996,.0003974,97.0170,198.3448,52.5285,307.6324,0,U,41773,999,54634,.34879E-3,.14923E-3,0
SKYSAT-C3,2016-058E,2026-06-25T14:03:43.049952,15.52881901,.0001259,96.9009,207.1097,117.9292,242.2090,0,U,41774,999,54741,.43484E-3,.26959E-3,0
ALSAT-1B,2016-059C,2026-06-25T20:54:58.919328,14.72281484,.0008746,97.7753,185.2606,189.2455,170.8593,0,U,41785,999,52185,.10777E-3,.634E-5,0
PATHFINDER 1,2016-059E,2026-06-25T20:42:56.121984,14.67671921,.0028525,97.8166,175.7479,175.6414,184.5045,0,U,41787,999,52098,.10352E-3,.546E-5,0
SCATSAT 1,2016-059H,2026-06-25T16:00:30.909024,14.79542742,.0053771,98.1188,240.5207,219.5991,140.1288,0,U,41790,999,10284,.15703E-3,.1146E-4,0
GOKTURK 1A,2016-073A,2026-06-25T20:45:03.693312,14.62779456,.0001427,98.1243,71.4026,78.3672,281.7690,0,U,41875,999,51009,.40508E-4,.16E-5,0
RESOURCESAT-2A,2016-074A,2026-06-25T20:50:43.100160,14.21618520,.0003225,98.7526,250.3023,67.2448,292.9070,0,U,41877,999,49553,-.46082E-5,-.54E-6,0
CARTOSAT-2D,2017-008A,2026-06-25T20:27:41.827680,15.19264302,.0004491,97.4105,235.9971,198.7115,161.3955,0,U,41948,999,51889,.19021E-3,.3943E-4,0
SENTINEL-2B,2017-013A,2026-06-25T19:24:47.843712,14.30819562,.0001181,98.5690,251.4620,86.6292,273.5026,0,U,42063,999,48587,.99349E-4,.217E-5,0
CARTOSAT-2E,2017-036C,2026-06-25T20:53:07.432224,15.19226580,.0002161,97.4274,236.5295,280.2486,79.8505,0,U,42767,999,49946,.1971E-3,.4083E-4,0
FORMOSAT-5,2017-049A,2026-06-25T19:28:10.678944,14.50901638,.0012472,98.2252,251.9294,60.4112,299.8325,0,U,42920,999,46792,.45112E-4,.135E-5,0
SENTINEL-5P,2017-064A,2026-06-25T19:13:41.018880,14.19520277,.0001019,98.7925,118.8713,89.4231,270.7061,0,U,42969,999,45078,.37427E-4,.35E-6,0
SKYSAT-C11,2017-068A,2026-06-25T15:55:06.242016,15.58311114,.0000465,97.4351,325.8655,125.3572,234.7728,0,U,42987,999,48456,.42253E-3,.31988E-3,0
SKYSAT-C10,2017-068B,2026-06-25T20:00:35.019360,15.34773797,.0001136,97.4510,313.7661,105.0954,255.0415,0,U,42988,999,48368,.30581E-3,.1023E-3,0
SKYSAT-C9,2017-068C,2026-06-25T08:27:30.796992,15.41748726,.0009578,97.4429,314.2930,107.5600,252.6693,0,U,42989,999,48401,.36105E-3,.15209E-3,0
SKYSAT-C8,2017-068D,2026-06-25T20:34:04.571904,15.37134459,.0001372,97.4526,313.6225,95.4455,264.6945,0,U,42990,999,48364,.33388E-3,.12059E-3,0
SKYSAT-C7,2017-068E,2026-06-25T20:25:16.802688,15.37086816,.0007086,97.4535,314.6062,81.5413,278.6634,0,U,42991,999,48370,.33498E-3,.12089E-3,0
SKYSAT-C6,2017-068F,2026-06-25T19:42:56.076768,15.34102159,.0005153,97.4571,314.5131,127.3170,232.8543,0,U,42992,999,48364,.31324E-3,.10263E-3,0
CARTOSAT-2F,2018-004A,2026-06-25T20:04:48.584352,15.19276003,.0001499,97.4788,236.3873,173.0397,187.0858,0,U,43111,999,46864,.22957E-3,.4774E-4,0
GAOFEN-1 02,2018-031A,2026-06-25T20:06:16.136928,14.76418347,.000306,98.0526,239.3407,9.6326,350.4942,0,U,43259,999,44397,.73957E-4,.462E-5,0
GAOFEN-1 03,2018-031B,2026-06-25T21:12:14.806080,14.76436334,.0003667,98.0515,239.2439,61.9264,298.2316,0,U,43260,999,44397,.22492E-4,.105E-5,0
GAOFEN-1 04,2018-031D,2026-06-25T20:37:25.178880,14.76443634,.0002048,98.0528,239.4115,66.8816,293.2610,0,U,43262,999,44396,.70703E-4,.44E-5,0
SENTINEL-3B,2018-039A,2026-06-25T19:34:35.491584,14.26736998,.0000747,98.6245,244.2242,105.6935,254.4328,0,U,43437,999,42535,.56727E-4,.94E-6,0
GAOFEN-5 01,2018-043A,2026-06-25T19:55:43.915296,14.60610977,.0002923,98.4573,148.5982,68.4761,291.6750,0,U,43461,999,43295,.75293E-4,.317E-5,0
GAOFEN-6,2018-048A,2026-06-25T19:30:44.521056,14.76423510,.0011702,98.0567,239.4730,138.2342,221.9762,0,U,43484,999,43466,.48573E-4,.286E-5,0
GAOFEN-11 01,2018-063A,2026-06-25T20:36:19.175328,15.55519886,.0002213,97.1289,243.7142,316.2835,43.8245,0,U,43585,999,44169,.23432E-3,.15923E-3,0
ICESAT-2,2018-070A,2026-06-25T20:43:27.537888,15.28171818,.0006222,92.0081,293.3231,99.3757,260.8196,0,U,43613,999,43378,.4051E-3,.11128E-3,0
HYSIS,2018-096A,2026-06-25T19:20:14.741952,14.78631569,.0001837,97.9839,243.4864,94.3239,265.8182,0,U,43719,999,40869,.1545E-3,.108E-4,0
KAZSTSAT,2018-099AB,2026-06-25T15:17:06.406080,14.99894182,.0008589,97.4285,208.1817,46.7589,313.4351,0,U,43783,999,41257,.15753E-3,.1899E-4,0
