SKYSAT-C4               
1 41771U 16058B   26176.60259370  .00021050  00000+0  39235-3 0  9996
2 41771  96.9174 198.0225 0001989 140.2489 219.8909 15.48836768546773
SKYSAT-C5               
1 41772U 16058C   26176.64637003  .00009034  00000+0  27180-3 0  9998
2 41772  97.0470 216.9092 0001109 229.1099 131.0049 15.34581947545045
SKYSAT-C2               
1 41773U 16058D   26176.56490875  .00014923  00000+0  34879-3 0  9990
2 41773  97.0170 198.3448 0003974  52.5285 307.6324 15.42248996546342
SKYSAT-C3               
1 41774U 16058E   26176.58591493  .00026959  00000+0  43484-3 0  9995
2 41774  96.9009 207.1097 0001259 117.9292 242.2090 15.52881901547412
ALSAT-1B                
1 41785U 16059C   26176.87151527  .00000634  00000+0  10777-3 0  9991
2 41785  97.7753 185.2606 0008746 189.2455 170.8593 14.72281484521857
PATHFINDER 1            
1 41787U 16059E   26176.86314956  .00000546  00000+0  10352-3 0  9990
2 41787  97.8166 175.7479 0028525 175.6414 184.5045 14.67671921520981
SCATSAT 1               
1 41790U 16059H   26176.66702441  .00001146  00000+0  15703-3 0  9994
2 41790  98.1188 240.5207 0053771 219.5991 140.1288 14.79542742102841
GOKTURK 1A              
1 41875U 16073A   26176.86462608  .00000160  00000+0  40508-4 0  9991
2 41875  98.1243  71.4026 0001427  78.3672 281.7690 14.62779456510090
RESOURCESAT-2A          
1 41877U 16074A   26176.86855440 -.00000054  00000+0 -46082-5 0  9992
2 41877  98.7526 250.3023 0003225  67.2448 292.9070 14.21618520495539
CARTOSAT-2D             
1 41948U 17008A   26176.85256745  .00003943  00000+0  19021-3 0  9990
2 41948  97.4105 235.9971 0004491 198.7115 161.3955 15.19264302518894
SENTINEL-2B             
1 42063U 17013A   26176.80888708  .00000217  00000+0  99349-4 0  9993
2 42063  98.5690 251.4620 0001181  86.6292 273.5026 14.30819562485874
CARTOSAT-2E             
1 42767U 17036C   26176.87022491  .00004083  00000+0  19710-3 0  9993
2 42767  97.4274 236.5295 0002161 280.2486  79.8505 15.19226580499468
FORMOSAT-5              
1 42920U 17049A   26176.81123471  .00000135  00000+0  45112-4 0  9992
2 42920  98.2252 251.9294 0012472  60.4112 299.8325 14.50901638467922
SENTINEL-5P             
1 42969U 17064A   26176.80116920  .00000035  00000+0  37427-4 0  9991
2 42969  98.7925 118.8713 0001019  89.4231 270.7061 14.19520277450784
SKYSAT-C11              
1 42987U 17068A   26176.66326669  .00031988  00000+0  42253-3 0  9995
2 42987  97.4351 325.8655 0000465 125.3572 234.7728 15.58311114484565
SKYSAT-C10              
1 42988U 17068B   26176.83373865  .00010230  00000+0  30581-3 0  9993
2 42988  97.4510 313.7661 0001136 105.0954 255.0415 15.34773797483685
SKYSAT-C9               
1 42989U 17068C   26176.35243978  .00015209  00000+0  36105-3 0  9991
2 42989  97.4429 314.2930 0009578 107.5600 252.6693 15.41748726484014
SKYSAT-C8               
1 42990U 17068D   26176.85699736  .00012059  00000+0  33388-3 0  9995
2 42990  97.4526 313.6225 0001372  95.4455 264.6945 15.37134459483649
SKYSAT-C7               
1 42991U 17068E   26176.85088892  .00012089  00000+0  33498-3 0  9996
2 42991  97.4535 314.6062 0007086  81.5413 278.6634 15.37086816483708
SKYSAT-C6               
1 42992U 17068F   26176.82148237  .00010263  00000+0  31324-3 0  9992
2 42992  97.4571 314.5131 0005153 127.3170 232.8543 15.34102159483647
CARTOSAT-2F             
1 43111U 18004A   26176.83667343  .00004774  00000+0  22957-3 0  9994
2 43111  97.4788 236.3873 0001499 173.0397 187.0858 15.19276003468649
GAOFEN-1 02             
1 43259U 18031A   26176.83768677  .00000462  00000+0  73957-4 0  9996
2 43259  98.0526 239.3407 0003060   9.6326 350.4942 14.76418347443977
GAOFEN-1 03             
1 43260U 18031B   26176.88350470  .00000105  00000+0  22492-4 0  9993
2 43260  98.0515 239.2439 0003667  61.9264 298.2316 14.76436334443976
GAOFEN-1 04             
1 43262U 18031D   26176.85931920  .00000440  00000+0  70703-4 0  9997
2 43262  98.0528 239.4115 0002048  66.8816 293.2610 14.76443634443966
SENTINEL-3B             
1 43437U 18039A   26176.81568856  .00000094  00000+0  56727-4 0  9994
2 43437  98.6245 244.2242 0000747 105.6935 254.4328 14.26736998425356
GAOFEN-5 01             
1 43461U 18043A   26176.83036939  .00000317  00000+0  75293-4 0  9997
2 43461  98.4573 148.5982 0002923  68.4761 291.6750 14.60610977432955
GAOFEN-6                
1 43484U 18048A   26176.81301529  .00000286  00000+0  48573-4 0  9991
2 43484  98.0567 239.4730 0011702 138.2342 221.9762 14.76423510434667
GAOFEN-11 01            
1 43585U 18063A   26176.85855527  .00015923  00000+0  23432-3 0  9996
2 43585  97.1289 243.7142 0002213 316.2835  43.8245 15.55519886441695
ICESAT-2                
1 43613U 18070A   26176.86351317  .00011128  00000+0  40510-3 0  9994
2 43613  92.0081 293.3231 0006222  99.3757 260.8196 15.28171818433783
HYSIS                   
1 43719U 18096A   26176.80572618  .00001080  00000+0  15450-3 0  9993
2 43719  97.9839 243.4864 0001837  94.3239 265.8182 14.78631569408690
KAZSTSAT                
1 43783U 18099AB  26176.63687970  .00001899  00000+0  15753-3 0  9990
2 43783  97.4285 208.1817 0008589  46.7589 313.4351 14.99894182412572
